*******************************************************************************
Ephemeris / WWW_USER Mon Mar 10 06:54:47 2025 Pasadena, USA      / Horizons    
*******************************************************************************
Target body name: (2018 WD2)                      {source: JPL#7}
Center body name: Earth (399)                     {source: DE441}
Center-site name: Mauna Kea
*******************************************************************************
Start time      : A.D. 2019-Jan-22 04:17:00.0000 UT      
Stop  time      : A.D. 2019-Jan-22 16:49:00.0000 UT      
Step-size       : 1 minutes
*******************************************************************************
Target pole/equ : undefined
Target radii    : undefined                                                    
Center geodetic : 204.5278, 19.8260847, 4.21024   {E-lon(deg),Lat(deg),Alt(km)}
Center cylindric: 204.5278, 6006.35451, 2151.0229 {E-lon(deg),Dxy(km),Dz(km)}
Center pole/equ : ITRF93                          {East-longitude positive}
Center radii    : 6378.137, 6378.137, 6356.752 km {Equator_a, b, pole_c}       
Target primary  : Sun
Vis. interferer : MOON (R_eq= 1737.400) km        {source: DE441}
Rel. light bend : Sun                             {source: DE441}
Rel. lght bnd GM: 1.3271E+11 km^3/s^2                                          
Small-body perts: Yes                             {source: SB441-N16}
Atmos refraction: NO (AIRLESS)
RA format       : HMS
Time format     : CAL 
Calendar mode   : Mixed Julian/Gregorian
RTS-only print  : NO       
EOP file        : eop.250307.p250603                                           
EOP coverage    : DATA-BASED 1962-JAN-20 TO 2025-MAR-07. PREDICTS-> 2025-JUN-02
Units conversion: 1 au= 149597870.700 km, c= 299792.458 km/s, 1 day= 86400.0 s 
Table cut-offs 1: Elevation (-90.0deg=NO ),Airmass (>38.000=NO), Daylight (YES)
Table cut-offs 2: Solar elongation (  0.0,180.0=NO ),Local Hour Angle( 0.0=NO )
Table cut-offs 3: RA/DEC angular rate (     0.0=NO )                           
*******************************************************************************
Initial IAU76/J2000 heliocentric ecliptic osculating elements (au, days, deg.):
  EPOCH=  2458442.5 ! 2018-Nov-20.00 (TDB)         Residual RMS= .32422        
   EC= .524986067713519    QR= .9778174985080528   TP= 2458471.2675125618      
   OM= 251.0855257113189   W=  198.8561547827716   IN= 2.860917524648221       
  Equivalent ICRF heliocentric cartesian coordinates (au, au/d):
   X= 5.933978759455335E-01  Y= 7.796199626272187E-01  Z= 3.534710331364960E-01
  VX=-1.894544763705440E-02 VY= 7.774789113426014E-03 VZ= 2.252803318104249E-03
Asteroid physical parameters (km, seconds, rotational period in hours):        
   GM= n.a.                RAD= n.a.               ROTPER= n.a.                
   H= 26.2                 G= .150                 B-V= n.a.                   
                           ALBEDO= n.a.            STYP= n.a.                  
*******************************************************************************
 Date__(UT)__HR:MN     R.A._________(ICRF)_________DEC
******************************************************
$$SOE
 2019-Jan-22 06:20  m  12 15 30.876491 -16 58 56.16459
 2019-Jan-22 06:21  m  12 15 30.867419 -16 58 56.04862
 2019-Jan-22 06:22  m  12 15 30.858295 -16 58 55.93277
 2019-Jan-22 06:23  m  12 15 30.849121 -16 58 55.81704
 2019-Jan-22 06:24  m  12 15 30.839896 -16 58 55.70144
 2019-Jan-22 06:25  m  12 15 30.830619 -16 58 55.58595
 2019-Jan-22 06:26  m  12 15 30.821291 -16 58 55.47057
 2019-Jan-22 06:27  m  12 15 30.811911 -16 58 55.35532
 2019-Jan-22 06:28  m  12 15 30.802480 -16 58 55.24018
 2019-Jan-22 06:29  m  12 15 30.792997 -16 58 55.12516
 2019-Jan-22 06:30  m  12 15 30.783463 -16 58 55.01025
 2019-Jan-22 06:31  m  12 15 30.773876 -16 58 54.89546
 2019-Jan-22 06:32  m  12 15 30.764237 -16 58 54.78077
 2019-Jan-22 06:33  m  12 15 30.754545 -16 58 54.66620
 2019-Jan-22 06:34  m  12 15 30.744802 -16 58 54.55174
 2019-Jan-22 06:35  m  12 15 30.735006 -16 58 54.43739
 2019-Jan-22 06:36  m  12 15 30.725157 -16 58 54.32315
 2019-Jan-22 06:37  m  12 15 30.715255 -16 58 54.20902
 2019-Jan-22 06:38  m  12 15 30.705301 -16 58 54.09499
 2019-Jan-22 06:39  m  12 15 30.695293 -16 58 53.98107
 2019-Jan-22 06:40  m  12 15 30.685233 -16 58 53.86725
 2019-Jan-22 06:41  m  12 15 30.675119 -16 58 53.75354
 2019-Jan-22 06:42  m  12 15 30.664951 -16 58 53.63993
 2019-Jan-22 06:43  m  12 15 30.654730 -16 58 53.52643
 2019-Jan-22 06:44  m  12 15 30.644456 -16 58 53.41302
 2019-Jan-22 06:45  m  12 15 30.634128 -16 58 53.29971
 2019-Jan-22 06:46  m  12 15 30.623746 -16 58 53.18651
 2019-Jan-22 06:47  m  12 15 30.613310 -16 58 53.07340
 2019-Jan-22 06:48  m  12 15 30.602820 -16 58 52.96039
 2019-Jan-22 06:49  m  12 15 30.592276 -16 58 52.84748
 2019-Jan-22 06:50  m  12 15 30.581677 -16 58 52.73466
 2019-Jan-22 06:51  m  12 15 30.571024 -16 58 52.62193
 2019-Jan-22 06:52  m  12 15 30.560316 -16 58 52.50930
 2019-Jan-22 06:53  m  12 15 30.549554 -16 58 52.39676
 2019-Jan-22 06:54  m  12 15 30.538737 -16 58 52.28431
 2019-Jan-22 06:55  m  12 15 30.527866 -16 58 52.17196
 2019-Jan-22 06:56  m  12 15 30.516939 -16 58 52.05969
 2019-Jan-22 06:57  m  12 15 30.505957 -16 58 51.94751
 2019-Jan-22 06:58  m  12 15 30.494921 -16 58 51.83542
 2019-Jan-22 06:59  m  12 15 30.483828 -16 58 51.72341
 2019-Jan-22 07:00  m  12 15 30.472681 -16 58 51.61149
 2019-Jan-22 07:01  m  12 15 30.461478 -16 58 51.49965
 2019-Jan-22 07:02  m  12 15 30.450219 -16 58 51.38790
 2019-Jan-22 07:03  m  12 15 30.438905 -16 58 51.27623
 2019-Jan-22 07:04  m  12 15 30.427535 -16 58 51.16464
 2019-Jan-22 07:05  m  12 15 30.416110 -16 58 51.05314
 2019-Jan-22 07:06  m  12 15 30.404628 -16 58 50.94171
 2019-Jan-22 07:07  m  12 15 30.393090 -16 58 50.83036
 2019-Jan-22 07:08  m  12 15 30.381496 -16 58 50.71908
 2019-Jan-22 07:09  m  12 15 30.369846 -16 58 50.60789
 2019-Jan-22 07:10  m  12 15 30.358140 -16 58 50.49677
 2019-Jan-22 07:11  m  12 15 30.346377 -16 58 50.38572
 2019-Jan-22 07:12  m  12 15 30.334558 -16 58 50.27475
 2019-Jan-22 07:13  m  12 15 30.322682 -16 58 50.16385
 2019-Jan-22 07:14  m  12 15 30.310749 -16 58 50.05302
 2019-Jan-22 07:15  m  12 15 30.298760 -16 58 49.94226
 2019-Jan-22 07:16  m  12 15 30.286714 -16 58 49.83157
 2019-Jan-22 07:17  m  12 15 30.274611 -16 58 49.72095
 2019-Jan-22 07:18  m  12 15 30.262451 -16 58 49.61040
 2019-Jan-22 07:19  m  12 15 30.250234 -16 58 49.49991
 2019-Jan-22 07:20  m  12 15 30.237960 -16 58 49.38949
 2019-Jan-22 07:21  m  12 15 30.225628 -16 58 49.27913
 2019-Jan-22 07:22  m  12 15 30.213239 -16 58 49.16883
 2019-Jan-22 07:23  m  12 15 30.200793 -16 58 49.05860
 2019-Jan-22 07:24  m  12 15 30.188289 -16 58 48.94843
 2019-Jan-22 07:25  m  12 15 30.175728 -16 58 48.83832
 2019-Jan-22 07:26  m  12 15 30.163109 -16 58 48.72826
 2019-Jan-22 07:27  m  12 15 30.150433 -16 58 48.61827
 2019-Jan-22 07:28  m  12 15 30.137699 -16 58 48.50833
 2019-Jan-22 07:29  m  12 15 30.124907 -16 58 48.39845
 2019-Jan-22 07:30  m  12 15 30.112057 -16 58 48.28862
 2019-Jan-22 07:31  m  12 15 30.099149 -16 58 48.17885
 2019-Jan-22 07:32  m  12 15 30.086183 -16 58 48.06913
 2019-Jan-22 07:33  m  12 15 30.073158 -16 58 47.95946
 2019-Jan-22 07:34  m  12 15 30.060076 -16 58 47.84984
 2019-Jan-22 07:35  m  12 15 30.046936 -16 58 47.74027
 2019-Jan-22 07:36  m  12 15 30.033737 -16 58 47.63075
 2019-Jan-22 07:37  m  12 15 30.020480 -16 58 47.52128
 2019-Jan-22 07:38  m  12 15 30.007164 -16 58 47.41185
 2019-Jan-22 07:39  m  12 15 29.993790 -16 58 47.30247
 2019-Jan-22 07:40  m  12 15 29.980357 -16 58 47.19314
 2019-Jan-22 07:41  m  12 15 29.966866 -16 58 47.08384
 2019-Jan-22 07:42  m  12 15 29.953316 -16 58 46.97459
 2019-Jan-22 07:43  m  12 15 29.939708 -16 58 46.86538
 2019-Jan-22 07:44  m  12 15 29.926041 -16 58 46.75622
 2019-Jan-22 07:45  m  12 15 29.912315 -16 58 46.64709
 2019-Jan-22 07:46  m  12 15 29.898530 -16 58 46.53799
 2019-Jan-22 07:47  m  12 15 29.884686 -16 58 46.42894
 2019-Jan-22 07:48  m  12 15 29.870783 -16 58 46.31992
 2019-Jan-22 07:49  m  12 15 29.856821 -16 58 46.21094
 2019-Jan-22 07:50  m  12 15 29.842800 -16 58 46.10199
 2019-Jan-22 07:51  m  12 15 29.828720 -16 58 45.99307
 2019-Jan-22 07:52  m  12 15 29.814581 -16 58 45.88418
 2019-Jan-22 07:53  m  12 15 29.800383 -16 58 45.77533
 2019-Jan-22 07:54  m  12 15 29.786125 -16 58 45.66650
 2019-Jan-22 07:55  m  12 15 29.771808 -16 58 45.55770
 2019-Jan-22 07:56  m  12 15 29.757432 -16 58 45.44893
 2019-Jan-22 07:57  m  12 15 29.742997 -16 58 45.34019
 2019-Jan-22 07:58  m  12 15 29.728502 -16 58 45.23147
 2019-Jan-22 07:59  m  12 15 29.713947 -16 58 45.12278
 2019-Jan-22 08:00  m  12 15 29.699333 -16 58 45.01411
 2019-Jan-22 08:01  m  12 15 29.684660 -16 58 44.90546
 2019-Jan-22 08:02  m  12 15 29.669927 -16 58 44.79683
 2019-Jan-22 08:03  m  12 15 29.655135 -16 58 44.68823
 2019-Jan-22 08:04  m  12 15 29.640283 -16 58 44.57964
 2019-Jan-22 08:05  m  12 15 29.625371 -16 58 44.47107
 2019-Jan-22 08:06  m  12 15 29.610400 -16 58 44.36251
 2019-Jan-22 08:07  m  12 15 29.595369 -16 58 44.25397
 2019-Jan-22 08:08  m  12 15 29.580278 -16 58 44.14545
 2019-Jan-22 08:09  m  12 15 29.565127 -16 58 44.03694
 2019-Jan-22 08:10  m  12 15 29.549917 -16 58 43.92844
 2019-Jan-22 08:11  m  12 15 29.534647 -16 58 43.81995
 2019-Jan-22 08:12  m  12 15 29.519317 -16 58 43.71148
 2019-Jan-22 08:13  m  12 15 29.503927 -16 58 43.60301
 2019-Jan-22 08:14  m  12 15 29.488478 -16 58 43.49455
 2019-Jan-22 08:15  m  12 15 29.472968 -16 58 43.38610
 2019-Jan-22 08:16  m  12 15 29.457399 -16 58 43.27765
 2019-Jan-22 08:17  m  12 15 29.441770 -16 58 43.16921
 2019-Jan-22 08:18  m  12 15 29.426080 -16 58 43.06077
 2019-Jan-22 08:19  m  12 15 29.410331 -16 58 42.95234
 2019-Jan-22 08:20  m  12 15 29.394522 -16 58 42.84390
 2019-Jan-22 08:21  m  12 15 29.378653 -16 58 42.73547
 2019-Jan-22 08:22  m  12 15 29.362724 -16 58 42.62704
